[{"OBJECT_NAME":"NANOSAT 1B","OBJECT_ID":"2009-041E","EPOCH":"2026-03-09T21:25:14.277504","MEAN_MOTION":14.92717139,"ECCENTRICITY":0.00507083,"INCLINATION":98.1028,"RA_OF_ASC_NODE":184.556,"ARG_OF_PERICENTER":130.665,"MEAN_ANOMALY":229.8993,"EPHEMERIS_TYPE":0,"CLASSIFICATION_TYPE":"U","NORAD_CAT_ID":35685,"ELEMENT_SET_NO":999,"REV_AT_EPOCH":89960,"BSTAR":0.0002341259,"MEAN_MOTION_DOT":2.414e-5,"MEAN_MOTION_DDOT":0},{"OBJECT_NAME":"STARLINK-33977","OBJECT_ID":"2025-126A","EPOCH":"2026-03-09T22:58:29.313408","MEAN_MOTION":14.98346979,"ECCENTRICITY":0.00026538,"INCLINATION":70.0056,"RA_OF_ASC_NODE":33.7233,"ARG_OF_PERICENTER":251.3926,"MEAN_ANOMALY":108.6945,"EPHEMERIS_TYPE":0,"CLASSIFICATION_TYPE":"U","NORAD_CAT_ID":64344,"ELEMENT_SET_NO":999,"REV_AT_EPOCH":4193,"BSTAR":0.00048924888,"MEAN_MOTION_DOT":5.752e-5,"MEAN_MOTION_DDOT":0}]
